NORAD_CAT_ID,OBJECT_NAME,OBJECT_TYPE,EPOCH,MEAN_MOTION,ECCENTRICITY,INCLINATION,RA_OF_ASC_NODE,ARG_OF_PERICENTER,MEAN_ANOMALY,BSTAR,MEAN_MOTION_DOT,MEAN_MOTION_DDOT,TLE_LINE0,TLE_LINE1,TLE_LINE2,SEMIMAJOR_AXIS,PERIOD,APOGEE,PERIGEE,DECAYED
54763.0,STARLINK-5191,PAYLOAD,2023-10-31 06:37:23,15.08835025,0.0001601,53.2172,306.8198,93.2308,266.8867,0.0005132,7.888e-05,0.0,0 STARLINK-5191,1 54763U 22175F   23304.27596241  .00007888  00000-0  51320-3 0  9995,2 54763  53.2172 306.8198 0001601  93.2308 266.8867 15.08835025 50022,6917.896,95.438,540.868,538.653,0.0
54763.0,STARLINK-5191,PAYLOAD,2023-10-31 17:45:05,15.08845004,0.0001605,53.2174,304.7382,91.0859,269.0317,0.00098111,0.00015363,0.0,0 STARLINK-5191,1 54763U 22175F   23304.73964398  .00015363  00000-0  98111-3 0  9994,2 54763  53.2174 304.7382 0001605  91.0859 269.0317 15.08845004 50097,6917.865,95.437,540.84,538.62,0.0
54763.0,STARLINK-5191,PAYLOAD,2023-11-01 06:28:10,15.08856845,0.0001745,53.2171,302.3584,93.4158,266.7033,0.00089576,0.00014003,0.0,0 STARLINK-5191,1 54763U 22175F   23305.26956085  .00014003  00000-0  89576-3 0  9992,2 54763  53.2171 302.3584 0001745  93.4158 266.7033 15.08856845 48018,6917.829,95.436,540.901,538.487,0.0
54763.0,STARLINK-5191,PAYLOAD,2023-11-02 04:43:33,15.0884795,0.0001763,53.217,298.195,95.6598,264.4595,0.00022993,3.374e-05,0.0,0 STARLINK-5191,1 54763U 22175F   23306.19691909  .00003374  00000-0  22993-3 0  9995,2 54763  53.2170 298.1950 0001763  95.6598 264.4595 15.08847950 48158,6917.856,95.437,540.941,538.501,0.0
54763.0,STARLINK-5191,PAYLOAD,2023-11-02 06:18:56,15.08851462,0.0001725,53.2175,297.8976,97.2337,262.8851,0.00027925,4.16e-05,0.0,0 STARLINK-5191,1 54763U 22175F   23306.26315670  .00004160  00000-0  27925-3 0  9995,2 54763  53.2175 297.8976 0001725  97.2337 262.8851 15.08851462 50326,6917.845,95.437,540.904,538.517,0.0
54763.0,STARLINK-5191,PAYLOAD,2023-11-03 04:34:20,15.08842261,0.0001951,53.2179,293.7345,104.6912,255.4296,0.00010775,1.427e-05,0.0,0 STARLINK-5191,1 54763U 22175F   23307.19051949  .00001427  00000-0  10775-3 0  9992,2 54763  53.2179 293.7345 0001951 104.6912 255.4296 15.08842261 48301,6917.873,95.437,541.088,538.389,0.0
54763.0,STARLINK-5191,PAYLOAD,2023-11-03 09:20:30,15.08845979,0.0001733,53.2179,292.8421,93.6764,266.4426,0.00028695,4.282e-05,0.0,0 STARLINK-5191,1 54763U 22175F   23307.38924010  .00004282  00000-0  28695-3 0  9993,2 54763  53.2179 292.8421 0001733  93.6764 266.4426 15.08845979 50495,6917.862,95.437,540.926,538.528,0.0
54763.0,STARLINK-5191,PAYLOAD,2023-11-03 15:42:03,15.08841797,0.0001746,53.2183,291.6509,86.55,273.5692,0.00034001,5.128e-05,0.0,0 STARLINK-5191,1 54763U 22175F   23307.65420327  .00005128  00000-0  34001-3 0  9993,2 54763  53.2183 291.6509 0001746  86.5500 273.5692 15.08841797 50530,6917.875,95.437,540.948,538.532,0.0
54763.0,STARLINK-5191,PAYLOAD,2023-11-04 04:25:08,15.08842297,0.000172,53.2184,289.2747,94.9411,265.1778,0.00021911,3.201e-05,0.0,0 STARLINK-5191,1 54763U 22175F   23308.18412375  .00003201  00000-0  21911-3 0  9992,2 54763  53.2184 289.2747 0001720  94.9411 265.1778 15.08842297 48450,6917.873,95.437,540.928,538.548,0.0
54763.0,STARLINK-5191,PAYLOAD,2023-11-04 09:11:17,15.0885384,0.0001783,53.2184,288.3835,95.5889,264.5307,0.00041027,6.25e-05,0.0,0 STARLINK-5191,1 54763U 22175F   23308.38284069  .00006250  00000-0  41027-3 0  9998,2 54763  53.2184 288.3835 0001783  95.5889 264.5307 15.08853840 50644,6917.838,95.437,540.937,538.47,0.0
54763.0,STARLINK-5191,PAYLOAD,2023-11-04 15:32:50,15.08844406,0.0001896,53.2185,287.1924,88.2249,271.896,0.00046064,7.051e-05,0.0,0 STARLINK-5191,1 54763U 22175F   23308.64780439  .00007051  00000-0  46064-3 0  9995,2 54763  53.2185 287.1924 0001896  88.2249 271.8960 15.08844406 50683,6917.867,95.437,541.044,538.42,0.0
54763.0,STARLINK-5191,PAYLOAD,2023-11-05 07:26:41,15.08858555,0.0001899,53.2184,284.223,101.8518,258.2688,0.00089365,0.0001397,0.0,0 STARLINK-5191,1 54763U 22175F   23309.31020134  .00013970  00000-0  89365-3 0  9997,2 54763  53.2184 284.2230 0001899 101.8518 258.2688 15.08858555 48621,6917.824,95.436,541.002,538.375,0.0
54763.0,STARLINK-5191,PAYLOAD,2023-11-05 15:23:37,15.08851043,0.0001952,53.217,282.7331,96.4468,263.6747,0.00049683,7.63e-05,0.0,0 STARLINK-5191,1 54763U 22175F   23309.64140184  .00007630  00000-0  49683-3 0  9996,2 54763  53.2170 282.7331 0001952  96.4468 263.6747 15.08851043 48670,6917.847,95.437,541.062,538.361,0.0
54763.0,STARLINK-5191,PAYLOAD,2023-11-06 02:31:18,15.08889734,0.0001988,53.2168,280.6508,97.0176,263.1043,0.0016524,0.00026144,0.0,0 STARLINK-5191,1 54763U 22175F   23310.10507054  .00026144  00000-0  16524-2 0  9990,2 54763  53.2168 280.6508 0001988  97.0176 263.1043 15.08889734 48742,6917.728,95.434,540.969,538.218,0.0
54763.0,STARLINK-5191,PAYLOAD,2023-11-06 07:17:26,15.08909043,0.0002032,53.2176,279.7607,98.3331,261.7892,0.0025633,0.00040821,0.0,0 STARLINK-5191,1 54763U 22175F   23310.30378315  .00040821  00000-0  25633-2 0  9997,2 54763  53.2176 279.7607 0002032  98.3331 261.7892 15.08909043 50934,6917.669,95.433,540.94,538.129,0.0
54763.0,STARLINK-5191,PAYLOAD,2023-11-06 15:14:22,15.08866426,0.0002728,53.2165,278.2713,78.6152,281.5146,0.00040653,6.192e-05,0.0,0 STARLINK-5191,1 54763U 22175F   23310.63498613  .00006192  00000-0  40653-3 0  9990,2 54763  53.2165 278.2713 0002728  78.6152 281.5146 15.08866426 48822,6917.8,95.436,541.552,537.777,0.0
54763.0,STARLINK-5191,PAYLOAD,2023-11-07 03:57:28,15.08804062,0.0001285,53.216,275.8946,86.3996,273.7143,0.00064219,9.937e-05,0.0,0 STARLINK-5191,1 54763U 22175F   23311.16491676  .00009937  00000-0  64219-3 0  9995,2 54763  53.2160 275.8946 0001285  86.3996 273.7143 15.08804062 48904,6917.99,95.44,540.744,538.966,0.0
54763.0,STARLINK-5191,PAYLOAD,2023-11-07 07:08:15,15.08804861,0.0001296,53.2165,275.3004,81.8567,278.2572,0.0016279,0.0002569,0.0,0 STARLINK-5191,1 54763U 22175F   23311.29740041  .00025690  00000-0  16279-2 0  9998,2 54763  53.2165 275.3004 0001296  81.8567 278.2572 15.08804861 51081,6917.988,95.44,540.749,538.956,0.0
54763.0,STARLINK-5191,PAYLOAD,2023-11-08 03:48:17,15.08807165,0.0001015,53.2176,271.4331,83.6783,276.4325,-0.00042791,-7.085e-05,0.0,0 STARLINK-5191,1 54763U 22175F   23312.15853383 -.00007085  00000-0 -42791-3 0  9997,2 54763  53.2176 271.4331 0001015  83.6783 276.4325 15.08807165 49052,6917.981,95.44,540.548,539.144,0.0
54763.0,STARLINK-5191,PAYLOAD,2023-11-09 03:39:03,15.0886129,0.0001374,53.2171,266.9734,100.0688,260.0459,0.0013093,0.00020623,0.0,0 STARLINK-5191,1 54763U 22175F   23313.15212514  .00020623  00000-0  13093-2 0  9996,2 54763  53.2171 266.9734 0001374 100.0688 260.0459 15.08861290 49202,6917.815,95.436,540.631,538.73,0.0
54763.0,STARLINK-5191,PAYLOAD,2023-11-09 06:49:49,15.08873364,0.0001595,53.218,266.3786,100.1223,259.9949,0.0013381,0.00021091,0.0,0 STARLINK-5191,1 54763U 22175F   23313.28460218  .00021091  00000-0  13381-2 0  9996,2 54763  53.2180 266.3786 0001595 100.1223 259.9949 15.08873364 51382,6917.778,95.435,540.747,538.54,0.0
54763.0,STARLINK-5191,PAYLOAD,2023-11-09 16:22:08,15.0884724,0.0001391,53.2183,264.5933,118.6912,241.422,0.00040253,6.125e-05,0.0,0 STARLINK-5191,1 54763U 22175F   23313.68204382  .00006125  00000-0  40253-3 0  9998,2 54763  53.2183 264.5933 0001391 118.6912 241.4220 15.08847240 49280,6917.858,95.437,540.686,538.761,0.0
54763.0,STARLINK-5191,PAYLOAD,2023-11-10 03:29:50,15.08844286,0.0001387,53.2167,262.5131,89.6316,270.4835,0.0003032,4.541e-05,0.0,0 STARLINK-5191,1 54763U 22175F   23314.14572554  .00004541  00000-0  30320-3 0  9993,2 54763  53.2167 262.5131 0001387  89.6316 270.4835 15.08844286 49359,6917.867,95.437,540.692,538.773,0.0
54763.0,STARLINK-5191,PAYLOAD,2023-11-10 06:40:36,15.08849641,0.0001401,53.2167,261.9163,90.7695,269.3458,0.00047057,7.211e-05,0.0,0 STARLINK-5191,1 54763U 22175F   23314.27820421  .00007211  00000-0  47057-3 0  9998,2 54763  53.2167 261.9163 0001401  90.7695 269.3458 15.08849641 51538,6917.851,95.437,540.685,538.747,0.0
54763.0,STARLINK-5191,PAYLOAD,2023-11-11 03:20:37,15.08844847,0.0001531,53.2182,258.0464,103.9309,256.1853,0.00041502,6.324e-05,0.0,0 STARLINK-5191,1 54763U 22175F   23315.13932595  .00006324  00000-0  41502-3 0  9993,2 54763  53.2182 258.0464 0001531 103.9309 256.1853 15.08844847 49509,6917.866,95.437,540.79,538.671,0.0
54763.0,STARLINK-5191,PAYLOAD,2023-11-11 12:52:56,15.08845815,0.0001467,53.2179,256.2642,81.532,278.5838,0.00039456,5.998e-05,0.0,0 STARLINK-5191,1 54763U 22175F   23315.53676709  .00005998  00000-0  39456-3 0  9990,2 54763  53.2179 256.2642 0001467  81.5320 278.5838 15.08845815 51729,6917.863,95.437,540.742,538.713,0.0
54763.0,STARLINK-5191,PAYLOAD,2023-11-12 03:11:25,15.08833822,0.00016,53.2182,253.5947,108.7764,251.3402,2.6308e-05,1.31e-06,0.0,0 STARLINK-5191,1 54763U 22175F   23316.13293126  .00000131  00000-0  26308-4 0  9992,2 54763  53.2182 253.5947 0001600 108.7764 251.3402 15.08833822 49654,6917.899,95.438,540.871,538.657,0.0
54763.0,STARLINK-5191,PAYLOAD,2023-11-13 04:37:35,15.08853105,0.000147,53.2176,248.8359,103.9997,256.1158,0.00072302,0.00011242,0.0,0 STARLINK-5191,1 54763U 22175F   23317.19277109  .00011242  00000-0  72302-3 0  9991,2 54763  53.2176 248.8359 0001470 103.9997 256.1158 15.08853105 49816,6917.84,95.437,540.722,538.688,0.0
54763.0,STARLINK-5191,PAYLOAD,2023-11-14 02:52:59,15.08855307,0.0001506,53.2174,244.6733,109.6205,250.495,0.00052123,8.021e-05,0.0,0 STARLINK-5191,1 54763U 22175F   23318.12012911  .00008021  00000-0  52123-3 0  9993,2 54763  53.2174 244.6733 0001506 109.6205 250.4950 15.08855307 49957,6917.834,95.437,540.74,538.657,0.0
54763.0,STARLINK-5191,PAYLOAD,2023-11-14 12:25:18,15.0884062,0.0001682,53.2177,242.8893,87.2536,272.8649,0.00027434,4.081e-05,0.0,0 STARLINK-5191,1 54763U 22175F   23318.51757222  .00004081  00000-0  27434-3 0  9996,2 54763  53.2177 242.8893 0001682  87.2536 272.8649 15.08840620 52173,6917.878,95.438,540.907,538.58,0.0
